1 25475U 98053A   19282.15455189  .00000034  00000-0  63458-4 0  9995
2 25475  45.0109 337.9741 0002276 244.5760 115.4851 14.32866923 99280
1 25475U 98053A   19282.57288899 +.00000038 +00000-0 +64860-4 0  9995
2 25475 045.0109 336.0076 0002283 245.9628 114.0980 14.32867073099013
1 25475U 98053A   19283.33984008  .00000040  00000-0  65760-4 0  9998
2 25475  45.0108 332.4019 0002321 248.8800 111.1799 14.32867320 99455
1 25475U 98053A   19283.61873128 +.00000060 +00000-0 +72738-4 0  9994
2 25475 045.0108 331.0909 0002316 249.5614 110.4983 14.32867536099167
